QB50P1                  
1 40025U 14033R   26167.75463622  .00006505  00000+0  32109-3 0  9992
2 40025  98.0959 178.8704 0007757 216.7389 143.3312 15.18255584652969
DTUSAT-2                
1 40030U 14033W   26167.51138486  .00005343  00000+0  28992-3 0  9993
2 40030  98.0860 165.1955 0006561 227.8429 132.2245 15.15011163652583
QB50P2                  
1 40032U 14033Y   26167.57176880  .00005101  00000+0  27579-3 0  9993
2 40032  98.0746 164.4136 0007953 164.9395 195.2074 15.15151501652579
PERSEUS-M1              
1 40039U 14033AF  26167.76854751  .00001208  00000+0  11414-3 0  9996
2 40039  97.9641 111.8934 0010343 302.9709  57.0516 14.95629727650571
POLYITAN-1              
1 40042U 14033AJ  26167.79123354  .00015356  00000+0  47987-3 0  9994
2 40042  98.0938 194.0149 0008614 142.4078 217.7766 15.33245199653532
TIGRISAT                
1 40043U 14033AK  26167.37474662  .00001794  00000+0  21114-3 0  9995
2 40043  97.7829 317.4045 0050609  77.8381 282.8497 14.85160382645501
CANX-4                  
1 40055U 14034C   26167.61149139  .00000755  00000+0  10412-3 0  9999
2 40055  98.3123  42.9035 0013211  18.8491 341.3206 14.81263782644447
CANX-5                  
1 40056U 14034D   26167.88013027  .00000763  00000+0  10512-3 0  9995
2 40056  98.3124  43.2255 0013200  18.2211 341.9470 14.81281507635296
GONETS-M 10             
1 40063U 14036C   26167.82897027  .00000010  00000+0 -74890-6 0  9997
2 40063  82.5113 307.8964 0022644 141.3135 218.9572 12.42945611542200
METEOR-M 2              
1 40069U 14037A   26167.86404343 -.00000236  00000+0 -88867-4 0  9991
2 40069  98.5109 143.6137 0006760  45.4754 314.6975 14.21460245619275
DX1                     
1 40071U 14037C   26167.89134965  .00000655  00000+0  74506-4 0  9995
2 40071  98.3865 129.5749 0005826 277.2158  82.8396 14.89981687646062
UKUBE-1                 
1 40074U 14037F   26167.57325823  .00006564  00000+0  37046-3 0  9990
2 40074  98.4228 170.7806 0002583 133.5977 226.5466 15.13544703648464
GAOFEN-2                
1 40118U 14049A   26167.83851127 -.00000008  00000+0  59196-5 0  9992
2 40118  98.0113 232.0459 0006077 228.7299 131.3391 14.80896797639189
BRITE-PL2 (HEWELIUSZ)   
1 40119U 14049B   26167.30201463  .00001445  00000+0  13881-3 0  9991
2 40119  97.9097 279.2951 0015251 111.1081 249.1771 14.94590679641310
CBERS 4                 
1 40336U 14079A   26167.82810685 -.00000004  00000+0  13452-4 0  9990
2 40336  98.3534 224.6707 0001865  63.3467 296.7910 14.35508502603902
SMAP                    
1 40376U 15003A   26167.87476340  .00000340  00000+0  74789-4 0  9995
2 40376  98.1276 174.9737 0001326  96.5150 263.6204 14.63366394607574
GONETS-M 11             
1 40552U 15020A   26167.84737156  .00000076  00000+0  47502-3 0  9990
2 40552  82.4870  31.2041 0016655   6.5435 353.5859 12.42877296508698
GONETS-M 12             
1 40553U 15020B   26167.90136192  .00000079  00000+0  49661-3 0  9992
2 40553  82.4904  32.2941 0015356 351.6076   8.4745 12.42891308508699
GONETS-M 13             
1 40554U 15020C   26167.87483936  .00000062  00000+0  37783-3 0  9994
2 40554  82.4866  30.9258 0013700 337.0295  23.0170 12.42870413508661
DMC3-FM1                
1 40715U 15032A   26167.86862229  .00000692  00000+0  85591-4 0  9991
2 40715  97.6462  33.0569 0007094  60.6777 299.5147 14.85740320589869
DMC3-FM2                
1 40716U 15032B   26167.89067699 -.00000063  00000+0 -13285-5 0  9999
2 40716  97.6516  34.6513 0007591  64.3201 295.8798 14.85742416589860
DMC3-FM3                
1 40717U 15032C   26167.91400206  .00000512  00000+0  64845-4 0  9992
2 40717  97.6567  36.4265 0006751  64.9214 295.2701 14.85732669589876
CARBONITE 1 (CBNT-1)    
1 40718U 15032D   26167.84528367  .00001573  00000+0  19683-3 0  9991
2 40718  97.6498 345.9257 0013195 299.2836  60.7060 14.83586480589297
LILACSAT-2              
1 40908U 15049K   26167.88527069  .00014899  00000+0  25410-3 0  9992
2 40908  97.4641 204.7154 0005498 246.4502 113.6173 15.51436882595707
COSMOS 2507 (RODNIK-S *)
1 40920U 15050A   26167.82975654  .00000029  00000+0  13904-3 0  9994
2 40920  82.4932  79.8931 0010232 357.6530   2.4500 12.42926469486812
COSMOS 2508 (RODNIK-S *)
1 40921U 15050B   26167.86527024  .00000062  00000+0  37568-3 0  9992
2 40921  82.4885  78.3763 0015200  27.5441 332.6441 12.42914049486803
COSMOS 2509 (RODNIK-S *)
1 40922U 15050C   26167.80510360  .00000054  00000+0  31563-3 0  9992
2 40922  82.4893  78.5161 0015731  43.7664 316.4659 12.42883560486830
